{
    "links": {
        "self": "http://www.neowsapp.com/rest/v1/neo/3406488?api_key=iIulBulltgU6a56xZRHN4H3l9WmuAYTsLGpBGhQ2"
    },
    "id": "3406488",
    "neo_reference_id": "3406488",
    "name": "(2008 ER90)",
    "designation": "2008 ER90",
    "nasa_jpl_url": "http://ssd.jpl.nasa.gov/sbdb.cgi?sstr=3406488",
    "absolute_magnitude_h": 24.2,
    "estimated_diameter": {
        "kilometers": {
            "estimated_diameter_min": 0.0384197891,
            "estimated_diameter_max": 0.0859092601
        },
        "meters": {
            "estimated_diameter_min": 38.4197891064,
            "estimated_diameter_max": 85.9092601232
        },
        "miles": {
            "estimated_diameter_min": 0.0238729428,
            "estimated_diameter_max": 0.0533815229
        },
        "feet": {
            "estimated_diameter_min": 126.0491808919,
            "estimated_diameter_max": 281.8545369825
        }
    },
    "is_potentially_hazardous_asteroid": false,
    "close_approach_data": [
        {
            "close_approach_date": "2008-03-24",
            "close_approach_date_full": "2008-Mar-24 13:51",
            "epoch_date_close_approach": 1206366660000,
            "relative_velocity": {
                "kilometers_per_second": "10.4712207122",
                "kilometers_per_hour": "37696.3945638228",
                "miles_per_hour": "23423.0736110598"
            },
            "miss_distance": {
                "astronomical": "0.3088446321",
                "lunar": "120.1405618869",
                "kilometers": "46202499.123093627",
                "miles": "28708901.7056289726"
            },
            "orbiting_body": "Earth"
        },
        {
            "close_approach_date": "2010-04-02",
            "close_approach_date_full": "2010-Apr-02 02:24",
            "epoch_date_close_approach": 1270175040000,
            "relative_velocity": {
                "kilometers_per_second": "10.5701637809",
                "kilometers_per_hour": "38052.5896114135",
                "miles_per_hour": "23644.399361603"
            },
            "miss_distance": {
                "astronomical": "0.3678550459",
                "lunar": "143.0956128551",
                "kilometers": "55030331.335392233",
                "miles": "34194262.2828014954"
            },
            "orbiting_body": "Earth"
        }
    ],
    "orbital_data": {
        "orbit_id": "7",
        "orbit_determination_date": "2017-04-06 09:03:57",
        "first_observation_date": "2008-03-11",
        "last_observation_date": "2008-03-28",
        "data_arc_in_days": 17,
        "observations_used": 9,
        "orbit_uncertainty": "7",
        "minimum_orbit_intersection": ".302317",
        "jupiter_tisserand_invariant": "4.325",
        "epoch_osculation": "2459000.5",
        "eccentricity": ".1757195040576356",
        "semi_major_axis": "1.571496172415745",
        "inclination": "20.38866722197532",
        "ascending_node_longitude": "176.4719915556475",
        "orbital_period": "719.5623280594349",
        "perihelion_distance": "1.295353644370377",
        "perihelion_argument": "12.32697677961665",
        "aphelion_distance": "1.847638700461112",
        "perihelion_time": "2458870.125557286312",
        "mean_anomaly": "65.22687131704741",
        "mean_motion": ".5003041237176392",
        "equinox": "J2000",
        "orbit_class": {
            "orbit_class_type": "AMO",
            "orbit_class_description": "Near-Earth asteroid orbits similar to that of 1221 Amor",
            "orbit_class_range": "1.017 AU < q (perihelion) < 1.3 AU"
        }
    },
    "is_sentry_object": false
}